OBJECT_NAME,OBJECT_ID,EPOCH,MEAN_MOTION,ECCENTRICITY,INCLINATION,RA_OF_ASC_NODE,ARG_OF_PERICENTER,MEAN_ANOMALY,EPHEMERIS_TYPE,CLASSIFICATION_TYPE,NORAD_CAT_ID,ELEMENT_SET_NO,REV_AT_EPOCH,BSTAR,MEAN_MOTION_DOT,MEAN_MOTION_DDOT
STARLINK-35830,2025-247V,2026-06-18T22:00:01.999584,15.34400144,.00018315,53.1589,81.1581,94.1689,253.9915,0,U,66284,999,582,-.61555753E-3,-.21117E-3,0
STARLINK-35819,2025-247W,2026-06-16T12:18:23.900832,15.30393184,.00040638,53.1597,92.4385,162.7842,197.3298,0,U,66285,999,3616,.26195576E-2,.78529E-3,0
STARLINK-35783,2025-247X,2026-06-18T22:12:24.610176,15.30192501,.00015331,53.1592,81.1872,86.3757,273.7419,0,U,66286,999,3653,.24592174E-3,.6929E-4,0
STARLINK-34884,2025-247Y,2026-06-18T21:38:11.810112,15.34405541,.00010695,53.1585,79.6166,99.4317,260.6807,0,U,66287,999,3655,.38800803E-3,.12758E-3,0
STARLINK-34896,2025-247Z,2026-06-18T04:20:25.013184,15.34373901,.00014225,53.1586,82.9451,66.7584,293.3569,0,U,66288,999,3644,.93727303E-3,.31397E-3,0
STARLINK-35802,2025-247AA,2026-06-18T21:23:03.026400,15.34402726,.00010736,53.1595,79.5491,103.2388,256.8735,0,U,66289,999,3655,.42179751E-3,.13903E-3,0
STARLINK-35799,2025-247AB,2026-06-18T04:05:14.037504,15.34404918,.00009616,53.1589,82.8807,83.2444,276.8668,0,U,66290,999,3649,.56255011E-3,.18681E-3,0
STARLINK-35800,2025-247AC,2026-06-18T22:35:38.635296,15.34395699,.00015413,53.1595,79.1612,88.8458,271.2721,0,U,66291,999,3660,.89821218E-3,.30089E-3,0
STARLINK-35798,2025-247AD,2026-06-18T22:41:41.889408,15.34395084,.00015682,53.1589,79.1789,126.7761,233.3385,0,U,66292,999,3655,.5585001E-3,.18537E-3,0
STARLINK-35442,2025-253A,2026-06-18T19:06:34.740288,15.27603112,.00008897,42.9991,1.8449,75.4173,284.6777,0,U,66319,999,3570,.50555476E-3,.13685E-3,0
STARLINK-34616,2025-253B,2026-06-18T19:23:00.844224,15.27589893,.00018238,43.0010,1.0617,278.2880,81.7765,0,U,66320,999,3579,.43491554E-3,.11729E-3,0
STARLINK-34615,2025-253C,2026-06-18T20:00:01.238688,15.27595651,.0004441,42.9934,1.2327,282.5214,77.5140,0,U,66321,999,3571,.43587025E-3,.11759E-3,0
STARLINK-35292,2025-253D,2026-06-17T23:19:19.978464,15.27590166,.0002281,43.0022,5.9744,282.1992,77.8604,0,U,66322,999,3558,.4930816E-3,.13335E-3,0
STARLINK-35309,2025-253E,2026-06-17T22:44:23.345088,15.27604913,.00019709,43.0029,6.6451,268.3208,91.7418,0,U,66323,999,3557,.82739091E-3,.22593E-3,0
STARLINK-35506,2025-253F,2026-06-18T19:28:34.205664,15.27588063,.0001122,43.0010,1.0905,284.7649,75.3078,0,U,66324,999,3571,.49037039E-3,.13259E-3,0
STARLINK-35504,2025-253G,2026-06-18T20:46:17.229216,15.27604167,.00014127,43.0054,1.5020,275.0244,85.0446,0,U,66325,999,3571,.4889675E-3,.13227E-3,0
STARLINK-35479,2025-253H,2026-06-18T20:11:07.431072,15.27591162,.00020551,43.0031,1.3114,274.7363,85.3254,0,U,66326,999,3571,.19897866E-3,.5219E-4,0
STARLINK-35507,2025-253J,2026-06-18T19:39:40.092192,15.27603291,.00008702,42.9959,1.1443,140.2326,219.8590,0,U,66327,999,3571,.5521357E-3,.14973E-3,0
STARLINK-35460,2025-253K,2026-06-17T22:36:59.185152,15.27599042,.00023235,43.0050,6.6108,268.2356,91.8229,0,U,66328,999,3557,.66632973E-3,.1813E-3,0
STARLINK-35505,2025-253L,2026-06-18T21:39:43.826112,15.27612708,.00018003,43.0029,0.9143,274.9624,85.1022,0,U,66329,999,3572,.67076918E-3,.1826E-3,0
STARLINK-35512,2025-253M,2026-06-17T22:27:44.432352,15.27615387,.0001223,43.0027,6.5655,267.2687,92.8025,0,U,66330,999,3557,.77392733E-3,.21119E-3,0
STARLINK-35257,2025-253N,2026-06-18T19:34:07.118688,15.27592804,.00014607,43.0008,1.1151,276.3646,83.7040,0,U,66331,999,3571,.50545696E-3,.13678E-3,0
STARLINK-35322,2025-253P,2026-06-18T22:57:14.233536,15.27579405,.0001007,43.0004,0.4614,270.5818,89.4918,0,U,66332,999,3573,.56903949E-3,.15429E-3,0
STARLINK-35400,2025-253Q,2026-06-18T19:19:31.771776,15.27586830,.0001991,43.0026,1.9057,280.8972,79.1656,0,U,66333,999,3570,.73094131E-3,.19911E-3,0
STARLINK-35407,2025-253R,2026-06-18T22:46:07.834656,15.27591826,.00016293,43.0013,0.4036,274.6707,85.3959,0,U,66334,999,3573,.74290335E-3,.20245E-3,0
STARLINK-35417,2025-253S,2026-06-18T21:43:25.752288,15.27589704,.00014909,43.0032,0.9345,273.0045,87.0636,0,U,66335,999,3572,.40983482E-3,.11036E-3,0
STARLINK-35404,2025-253T,2026-06-18T21:30:28.789920,15.27586933,.00014242,43.0032,0.8613,275.4009,84.6680,0,U,66336,999,3572,.45876536E-3,.12386E-3,0
STARLINK-34783,2025-253U,2026-06-17T22:53:38.405472,15.27600761,.00031085,43.0044,6.6995,279.9773,80.0728,0,U,66337,999,3557,.62250831E-3,.16919E-3,0
STARLINK-35477,2025-253V,2026-06-18T19:54:28.565856,15.27607987,.00006557,43.0019,1.2299,239.4001,120.6786,0,U,66338,999,3571,.63468891E-3,.17259E-3,0
STARLINK-35443,2025-253W,2026-06-18T21:37:53.044032,15.27609571,.00019801,43.0054,0.9012,280.3780,79.6849,0,U,66339,999,3572,.64156372E-3,.1745E-3,0
