STARLINK-35830          
1 66284U 25247V   26169.91668981 -.00021117  00000+0 -61556-3 0  9997
2 66284  53.1589  81.1581 0001831  94.1689 253.9915 15.34400144  5828
STARLINK-35819          
1 66285U 25247W   26167.51277663  .00078529  00000+0  26196-2 0  9992
2 66285  53.1597  92.4385 0004063 162.7842 197.3298 15.30393184 36165
STARLINK-35783          
1 66286U 25247X   26169.92528484  .00006929  00000+0  24592-3 0  9994
2 66286  53.1592  81.1872 0001533  86.3757 273.7419 15.30192501 36537
STARLINK-34884          
1 66287U 25247Y   26169.90152558  .00012758  00000+0  38801-3 0  9993
2 66287  53.1585  79.6166 0001069  99.4317 260.6807 15.34405541 36552
STARLINK-34896          
1 66288U 25247Z   26169.18084506  .00031397  00000+0  93727-3 0  9999
2 66288  53.1586  82.9451 0001422  66.7584 293.3569 15.34373901 36444
STARLINK-35802          
1 66289U 25247AA  26169.89100725  .00013903  00000+0  42180-3 0  9990
2 66289  53.1595  79.5491 0001073 103.2388 256.8735 15.34402726 36551
STARLINK-35799          
1 66290U 25247AB  26169.17030136  .00018681  00000+0  56255-3 0  9997
2 66290  53.1589  82.8807 0000961  83.2444 276.8668 15.34404918 36494
STARLINK-35800          
1 66291U 25247AC  26169.94141939  .00030089  00000+0  89821-3 0  9998
2 66291  53.1595  79.1612 0001541  88.8458 271.2721 15.34395699 36603
STARLINK-35798          
1 66292U 25247AD  26169.94562372  .00018537  00000+0  55850-3 0  9996
2 66292  53.1589  79.1789 0001568 126.7761 233.3385 15.34395084 36557
STARLINK-35442          
1 66319U 25253A   26169.79623542  .00013685  00000+0  50555-3 0  9999
2 66319  42.9991   1.8449 0000889  75.4173 284.6777 15.27603112 35703
STARLINK-34616          
1 66320U 25253B   26169.80764866  .00011729  00000+0  43492-3 0  9997
2 66320  43.0010   1.0617 0001823 278.2880  81.7765 15.27589893 35796
STARLINK-34615          
1 66321U 25253C   26169.83334767  .00011759  00000+0  43587-3 0  9992
2 66321  42.9934   1.2327 0004441 282.5214  77.5140 15.27595651 35719
STARLINK-35292          
1 66322U 25253D   26168.97175901  .00013335  00000+0  49308-3 0  9999
2 66322  43.0022   5.9744 0002281 282.1992  77.8604 15.27590166 35582
STARLINK-35309          
1 66323U 25253E   26168.94749242  .00022593  00000+0  82739-3 0  9993
2 66323  43.0029   6.6451 0001970 268.3208  91.7418 15.27604913 35576
STARLINK-35506          
1 66324U 25253F   26169.81150701  .00013259  00000+0  49037-3 0  9990
2 66324  43.0010   1.0905 0001122 284.7649  75.3078 15.27588063 35713
STARLINK-35504          
1 66325U 25253G   26169.86547719  .00013227  00000+0  48897-3 0  9993
2 66325  43.0054   1.5020 0001412 275.0244  85.0446 15.27604167 35712
STARLINK-35479          
1 66326U 25253H   26169.84105823  .00005219  00000+0  19898-3 0  9999
2 66326  43.0031   1.3114 0002055 274.7363  85.3254 15.27591162 35712
STARLINK-35507          
1 66327U 25253J   26169.81921403  .00014973  00000+0  55214-3 0  9996
2 66327  42.9959   1.1443 0000870 140.2326 219.8590 15.27603291 35716
STARLINK-35460          
1 66328U 25253K   26168.94235168  .00018130  00000+0  66633-3 0  9992
2 66328  43.0050   6.6108 0002323 268.2356  91.8229 15.27599042 35577
STARLINK-35505          
1 66329U 25253L   26169.90259058  .00018260  00000+0  67077-3 0  9991
2 66329  43.0029   0.9143 0001800 274.9624  85.1022 15.27612708 35720
STARLINK-35512          
1 66330U 25253M   26168.93593093  .00021119  00000+0  77393-3 0  9994
2 66330  43.0027   6.5655 0001223 267.2687  92.8025 15.27615387 35570
STARLINK-35257          
1 66331U 25253N   26169.81536017  .00013678  00000+0  50546-3 0  9998
2 66331  43.0008   1.1151 0001460 276.3646  83.7040 15.27592804 35711
STARLINK-35322          
1 66332U 25253P   26169.95641474  .00015429  00000+0  56904-3 0  9998
2 66332  43.0004   0.4614 0001007 270.5818  89.4918 15.27579405 35739
STARLINK-35400          
1 66333U 25253Q   26169.80522884  .00019911  00000+0  73094-3 0  9995
2 66333  43.0026   1.9057 0001991 280.8972  79.1656 15.27586830 35700
STARLINK-35407          
1 66334U 25253R   26169.94870179  .00020245  00000+0  74290-3 0  9995
2 66334  43.0013   0.4036 0001629 274.6707  85.3959 15.27591826 35732
STARLINK-35417          
1 66335U 25253S   26169.90515917  .00011036  00000+0  40983-3 0  9998
2 66335  43.0032   0.9345 0001490 273.0045  87.0636 15.27589704 35728
STARLINK-35404          
1 66336U 25253T   26169.89616655  .00012386  00000+0  45877-3 0  9994
2 66336  43.0032   0.8613 0001424 275.4009  84.6680 15.27586933 35722
STARLINK-34783          
1 66337U 25253U   26168.95391673  .00016919  00000+0  62251-3 0  9992
2 66337  43.0044   6.6995 0003108 279.9773  80.0728 15.27600761 35573
STARLINK-35477          
1 66338U 25253V   26169.82949729  .00017259  00000+0  63469-3 0  9991
2 66338  43.0019   1.2299 0000655 239.4001 120.6786 15.27607987 35711
STARLINK-35443          
1 66339U 25253W   26169.90130838  .00017450  00000+0  64156-3 0  9991
2 66339  43.0054   0.9012 0001980 280.3780  79.6849 15.27609571 35726
